{"type": "FeatureCollection", "features": [ {"type": "Feature", "properties": {"norad_id": 31615, "name": "FENGYUN 1C DEB", "group": "fengyun-1c-debris", "lat": -13.536746654788134, "lon": 55.292099280512474, "alt_km": 736.7902548280845, "timestamp": "2025-12-26T19:22:39.190050+00:00", "meta": {"OBJECT_NAME": "FENGYUN 1C DEB", "OBJECT_ID": "1999-025BZV", "EPOCH": "2025-12-26T09:24:16.315200", "MEAN_MOTION": 14.35598935, "ECCENTRICITY": 0.01670105, "INCLINATION": 99.1382, "RA_OF_ASC_NODE": 52.631, "ARG_OF_PERICENTER": 276.6682, "MEAN_ANOMALY": 81.5518, "EPHEMERIS_TYPE": 0, "CLASSIFICATION_TYPE": "U", "NORAD_CAT_ID": 31615, "ELEMENT_SET_NO": 999, "REV_AT_EPOCH": 65474, "BSTAR": 0.0030541194, "MEAN_MOTION_DOT": 0.00010274, "MEAN_MOTION_DDOT": 0}, "tle": {"line1": "1 31615U 99025BZV 25360.39185550  .00010274  00000+0  30541-2 0  9991", "line2": "2 31615  99.1382  52.6310 0167010 276.6682  81.5518 14.35598935654745"}}, "geometry": {"type": "Point", "coordinates": [55.292099280512474, -13.536746654788134]}}, {"type": "Feature", "properties": {"norad_id": 31618, "name": "FENGYUN 1C DEB", "group": "fengyun-1c-debris", "lat": 40.32941199297663, "lon": 136.58574048678014, "alt_km": 864.610386466582, "timestamp": "2025-12-26T19:22:39.190060+00:00", "meta": {"OBJECT_NAME": "FENGYUN 1C DEB", "OBJECT_ID": "1999-025BZY", "EPOCH": "2025-12-23T05:00:13.341600", "MEAN_MOTION": 14.21035882, "ECCENTRICITY": 0.0156931, "INCLINATION": 99.4438, "RA_OF_ASC_NODE": 140.8629, "ARG_OF_PERICENTER": 296.392, "MEAN_ANOMALY": 62.1219, "EPHEMERIS_TYPE": 0, "CLASSIFICATION_TYPE": "U", "NORAD_CAT_ID": 31618, "ELEMENT_SET_NO": 999, "REV_AT_EPOCH": 70413, "BSTAR": 0.00031508967, "MEAN_MOTION_DOT": 7.22e-06, "MEAN_MOTION_DDOT": 0}, "tle": {"line1": "1 31618U 99025BZY 25357.20848775  .00000722  00000+0  31509-3 0  9998", "line2": "2 31618  99.4438 140.8629 0156931 296.3920  62.1219 14.21035882704134"}}, "geometry": {"type": "Point", "coordinates": [136.58574048678014, 40.32941199297663]}}, {"type": "Feature", "properties": {"norad_id": 31619, "name": "FENGYUN 1C DEB", "group": "fengyun-1c-debris", "lat": 29.79030847269645, "lon": -169.90658446296243, "alt_km": 655.481183284327, "timestamp": "2025-12-26T19:22:39.190069+00:00", "meta": {"OBJECT_NAME": "FENGYUN 1C DEB", "OBJECT_ID": "1999-025BZZ", "EPOCH": "2025-12-25T19:00:41.112000", "MEAN_MOTION": 14.86638138, "ECCENTRICITY": 0.00928911, "INCLINATION": 99.0717, "RA_OF_ASC_NODE": 194.1836, "ARG_OF_PERICENTER": 254.2783, "MEAN_ANOMALY": 104.8167, "EPHEMERIS_TYPE": 0, "CLASSIFICATION_TYPE": "U", "NORAD_CAT_ID": 31619, "ELEMENT_SET_NO": 999, "REV_AT_EPOCH": 63682, "BSTAR": 0.0053206565, "MEAN_MOTION_DOT": 0.00051363, "MEAN_MOTION_DDOT": 0}, "tle": {"line1": "1 31619U 99025BZZ 25359.79214250  .00051363  00000+0  53207-2 0  9995", "line2": "2 31619  99.0717 194.1836 0092891 254.2783 104.8167 14.86638138636827"}}, "geometry": {"type": "Point", "coordinates": [-169.90658446296243, 29.79030847269645]}}, {"type": "Feature", "properties": {"norad_id": 31620, "name": "FENGYUN 1C DEB", "group": "fengyun-1c-debris", "lat": 61.816684368265044, "lon": 68.37601654971013, "alt_km": 754.9754212200696, "timestamp": "2025-12-26T19:22:39.190080+00:00", "meta": {"OBJECT_NAME": "FENGYUN 1C DEB", "OBJECT_ID": "1999-025CAA", "EPOCH": "2025-12-24T11:57:16.474176", "MEAN_MOTION": 14.3737324, "ECCENTRICITY": 0.0019475, "INCLINATION": 98.8868, "RA_OF_ASC_NODE": 82.9689, "ARG_OF_PERICENTER": 5.6991, "MEAN_ANOMALY": 354.4413, "EPHEMERIS_TYPE": 0, "CLASSIFICATION_TYPE": "U", "NORAD_CAT_ID": 31620, "ELEMENT_SET_NO": 999, "REV_AT_EPOCH": 66013, "BSTAR": 0.0023608058, "MEAN_MOTION_DOT": 7.026e-05, "MEAN_MOTION_DDOT": 0}, "tle": {"line1": "1 31620U 99025CAA 25358.49810734  .00007026  00000+0  23608-2 0  9991", "line2": "2 31620  98.8868  82.9689 0019475   5.6991 354.4413 14.37373240660133"}}, "geometry": {"type": "Point", "coordinates": [68.37601654971013, 61.816684368265044]}}, {"type": "Feature", "properties": {"norad_id": 31622, "name": "FENGYUN 1C DEB", "group": "fengyun-1c-debris", "lat": 44.03603668821109, "lon": 87.29643794657342, "alt_km": 766.830515321054, "timestamp": "2025-12-26T19:22:39.190089+00:00", "meta": {"OBJECT_NAME": "FENGYUN 1C DEB", "OBJECT_ID": "1999-025CAC", "EPOCH": "2025-12-24T05:29:24.828576", "MEAN_MOTION": 14.37296522, "ECCENTRICITY": 0.00154964, "INCLINATION": 98.8155, "RA_OF_ASC_NODE": 93.2846, "ARG_OF_PERICENTER": 305.3244, "MEAN_ANOMALY": 84.2007, "EPHEMERIS_TYPE": 0, "CLASSIFICATION_TYPE": "U", "NORAD_CAT_ID": 31622, "ELEMENT_SET_NO": 999, "REV_AT_EPOCH": 95937, "BSTAR": 0.0019273331, "MEAN_MOTION_DOT": 5.713e-05, "MEAN_MOTION_DDOT": 0}, "tle": {"line1": "1 31622U 99025CAC 25358.22875959  .00005713  00000+0  19273-2 0  9998", "line2": "2 31622  98.8155  93.2846 0015496 305.3244  84.2007 14.37296522959375"}}, "geometry": {"type": "Point", "coordinates": [87.29643794657342, 44.03603668821109]}}, {"type": "Feature", "properties": {"norad_id": 31623, "name": "FENGYUN 1C DEB", "group": "fengyun-1c-debris", "lat": 80.72442507228034, "lon": 84.88230623031463, "alt_km": 1033.7131403482226, "timestamp": "2025-12-26T19:22:39.190102+00:00", "meta": {"OBJECT_NAME": "FENGYUN 1C DEB", "OBJECT_ID": "1999-025CAD", "EPOCH": "2025-12-22T19:23:51.435744", "MEAN_MOTION": 13.82604829, "ECCENTRICITY": 0.01941743, "INCLINATION": 97.6285, "RA_OF_ASC_NODE": 206.4945, "ARG_OF_PERICENTER": 338.158, "MEAN_ANOMALY": 21.1382, "EPHEMERIS_TYPE": 0, "CLASSIFICATION_TYPE": "U", "NORAD_CAT_ID": 31623, "ELEMENT_SET_NO": 999, "REV_AT_EPOCH": 58059, "BSTAR": 0.00035445246, "MEAN_MOTION_DOT": 4.12e-06, "MEAN_MOTION_DDOT": 0}, "tle": {"line1": "1 31623U 99025CAD 25356.80823421  .00000412  00000+0  35445-3 0  9999", "line2": "2 31623  97.6285 206.4945 0194174 338.1580  21.1382 13.82604829580595"}}, "geometry": {"type": "Point", "coordinates": [84.88230623031463, 80.72442507228034]}}, {"type": "Feature", "properties": {"norad_id": 31625, "name": "FENGYUN 1C DEB", "group": "fengyun-1c-debris", "lat": -41.03840827124602, "lon": -100.1588045147065, "alt_km": 751.5156498036467, "timestamp": "2025-12-26T19:22:39.190113+00:00", "meta": {"OBJECT_NAME": "FENGYUN 1C DEB", "OBJECT_ID": "1999-025CAF", "EPOCH": "2025-12-26T12:02:52.157184", "MEAN_MOTION": 14.55419351, "ECCENTRICITY": 0.0148483, "INCLINATION": 98.8049, "RA_OF_ASC_NODE": 87.2733, "ARG_OF_PERICENTER": 333.8362, "MEAN_ANOMALY": 90.0506, "EPHEMERIS_TYPE": 0, "CLASSIFICATION_TYPE": "U", "NORAD_CAT_ID": 31625, "ELEMENT_SET_NO": 999, "REV_AT_EPOCH": 98593, "BSTAR": 0.00016103723, "MEAN_MOTION_DOT": 7.5e-06, "MEAN_MOTION_DDOT": 0}, "tle": {"line1": "1 31625U 99025CAF 25360.50199256  .00000750  00000+0  16104-3 0  9991", "line2": "2 31625  98.8049  87.2733 0148483 333.8362  90.0506 14.55419351985935"}}, "geometry": {"type": "Point", "coordinates": [-100.1588045147065, -41.03840827124602]}}, {"type": "Feature", "properties": {"norad_id": 31628, "name": "FENGYUN 1C DEB", "group": "fengyun-1c-debris", "lat": -17.375301431960015, "lon": 36.076132975874636, "alt_km": 823.8984197407381, "timestamp": "2025-12-26T19:22:39.190123+00:00", "meta": {"OBJECT_NAME": "FENGYUN 1C DEB", "OBJECT_ID": "1999-025CAJ", "EPOCH": "2025-12-24T21:24:47.634336", "MEAN_MOTION": 13.86888051, "ECCENTRICITY": 0.0167504, "INCLINATION": 102.2708, "RA_OF_ASC_NODE": 217.4758, "ARG_OF_PERICENTER": 191.0461, "MEAN_ANOMALY": 168.6987, "EPHEMERIS_TYPE": 0, "CLASSIFICATION_TYPE": "U", "NORAD_CAT_ID": 31628, "ELEMENT_SET_NO": 999, "REV_AT_EPOCH": 93468, "BSTAR": 0.0019416, "MEAN_MOTION_DOT": 2.466e-05, "MEAN_MOTION_DDOT": 0}, "tle": {"line1": "1 31628U 99025CAJ 25358.89221799  .00002466  00000+0  19416-2 0  9995", "line2": "2 31628 102.2708 217.4758 0167504 191.0461 168.6987 13.86888051934684"}}, "geometry": {"type": "Point", "coordinates": [36.076132975874636, -17.375301431960015]}}, {"type": "Feature", "properties": {"norad_id": 31629, "name": "FENGYUN 1C DEB", "group": "fengyun-1c-debris", "lat": 53.49124465225981, "lon": 34.830959982894534, "alt_km": 804.598193523836, "timestamp": "2025-12-26T19:22:39.190133+00:00", "meta": {"OBJECT_NAME": "FENGYUN 1C DEB", "OBJECT_ID": "1999-025CAK", "EPOCH": "2025-12-22T21:46:19.265952", "MEAN_MOTION": 14.1470932, "ECCENTRICITY": 0.0103695, "INCLINATION": 102.1329, "RA_OF_ASC_NODE": 46.4435, "ARG_OF_PERICENTER": 1.0988, "MEAN_ANOMALY": 359.0383, "EPHEMERIS_TYPE": 0, "CLASSIFICATION_TYPE": "U", "NORAD_CAT_ID": 31629, "ELEMENT_SET_NO": 999, "REV_AT_EPOCH": 94590, "BSTAR": 0.0024639, "MEAN_MOTION_DOT": 4.928e-05, "MEAN_MOTION_DDOT": 0}, "tle": {"line1": "1 31629U 99025CAK 25356.90716743  .00004928  00000+0  24639-2 0  9992", "line2": "2 31629 102.1329  46.4435 0103695   1.0988 359.0383 14.14709320945906"}}, "geometry": {"type": "Point", "coordinates": [34.830959982894534, 53.49124465225981]}}, {"type": "Feature", "properties": {"norad_id": 31630, "name": "FENGYUN 1C DEB", "group": "fengyun-1c-debris", "lat": -18.08868673162374, "lon": 171.70980343342973, "alt_km": 455.29849884604937, "timestamp": "2025-12-26T19:22:39.190144+00:00", "meta": {"OBJECT_NAME": "FENGYUN 1C DEB", "OBJECT_ID": "1999-025CAL", "EPOCH": "2025-12-22T05:28:34.626720", "MEAN_MOTION": 15.06551514, "ECCENTRICITY": 0.01641353, "INCLINATION": 98.0893, "RA_OF_ASC_NODE": 164.2373, "ARG_OF_PERICENTER": 324.5448, "MEAN_ANOMALY": 34.4953, "EPHEMERIS_TYPE": 0, "CLASSIFICATION_TYPE": "U", "NORAD_CAT_ID": 31630, "ELEMENT_SET_NO": 999, "REV_AT_EPOCH": 98733, "BSTAR": 0.0009387373, "MEAN_MOTION_DOT": 0.00018857, "MEAN_MOTION_DDOT": 0}, "tle": {"line1": "1 31630U 99025CAL 25356.22817855  .00018857  00000+0  93874-3 0  9999", "line2": "2 31630  98.0893 164.2373 0164135 324.5448  34.4953 15.06551514987339"}}, "geometry": {"type": "Point", "coordinates": [171.70980343342973, -18.08868673162374]}}]}